[{"OBJECT_NAME":"LINGQIAO VIDEO B","OBJECT_ID":"2015-057C","EPOCH":"2026-03-09T23:35:26.721888","MEAN_MOTION":14.77336016,"ECCENTRICITY":0.00156503,"INCLINATION":97.6585,"RA_OF_ASC_NODE":69.8903,"ARG_OF_PERICENTER":229.2428,"MEAN_ANOMALY":130.7425,"EPHEMERIS_TYPE":0,"CLASSIFICATION_TYPE":"U","NORAD_CAT_ID":40960,"ELEMENT_SET_NO":999,"REV_AT_EPOCH":56080,"BSTAR":0.00021138214,"MEAN_MOTION_DOT":1.456e-5,"MEAN_MOTION_DDOT":0},{"OBJECT_NAME":"CZ-6A DEB","OBJECT_ID":"2024-140TE","EPOCH":"2026-03-09T14:15:52.010208","MEAN_MOTION":14.60552911,"ECCENTRICITY":0.0091089,"INCLINATION":89.0388,"RA_OF_ASC_NODE":285.1287,"ARG_OF_PERICENTER":244.8325,"MEAN_ANOMALY":114.3421,"EPHEMERIS_TYPE":0,"CLASSIFICATION_TYPE":"U","NORAD_CAT_ID":61293,"ELEMENT_SET_NO":999,"REV_AT_EPOCH":8120,"BSTAR":0.0011803,"MEAN_MOTION_DOT":6.094e-5,"MEAN_MOTION_DDOT":0}]
